{
  "norad_id": 39635,
  "name": "IRNSS-1B",
  "history": [
    {
      "epoch": "2026-03-28T11:37:46.490304Z",
      "apogee_km": 35877.16398341222,
      "perigee_km": 35692.08632266523,
      "latitude_deg": 3.0002458580513953,
      "longitude_deg": 55.96809512515687,
      "height_km": 35692.454193340214,
      "semi_major_axis_km": 42162.762153038726,
      "eccentricity": 0.0021948,
      "inclination_deg": 29.0683,
      "raan_deg": 241.7822,
      "arg_perigee_deg": 181.1529,
      "mean_anomaly_deg": 352.5587,
      "mean_motion_rev_day": 1.00278812
    },
    {
      "epoch": "2026-03-28T23:36:32.791104Z",
      "apogee_km": 35877.199426549996,
      "perigee_km": 35691.9617431128,
      "latitude_deg": -2.87822847652879,
      "longitude_deg": 55.992727344772284,
      "height_km": 35876.4314691424,
      "semi_major_axis_km": 42162.7175848314,
      "eccentricity": 0.0021967,
      "inclination_deg": 29.0674,
      "raan_deg": 241.7738,
      "arg_perigee_deg": 181.1999,
      "mean_anomaly_deg": 172.7168,
      "mean_motion_rev_day": 1.00278971
    },
    {
      "epoch": "2026-03-29T23:34:03.046944Z",
      "apogee_km": 35877.26539286791,
      "perigee_km": 35691.72030768579,
      "latitude_deg": -2.680940477272574,
      "longitude_deg": 55.96700897881026,
      "height_km": 35876.52910106894,
      "semi_major_axis_km": 42162.62985027685,
      "eccentricity": 0.00220035,
      "inclination_deg": 29.0656,
      "raan_deg": 241.757,
      "arg_perigee_deg": 181.2619,
      "mean_anomaly_deg": 173.0557,
      "mean_motion_rev_day": 1.00279284
    }
  ]
}